# Made by eph2tle, compiled Oct  4 2021 08:54:50
# Run at Thu Oct 14 12:42:45 2021
#
#    The following TLEs (Two-Line Elements) were generated by fitting
# a numerically-integrated ephemeris,  based on the orbit given below,
# to the SDP4/SGP4 models.  Each TLE is good for the interval between
# its epoch and the epoch of the subsequent TLE (usually one day).
# The maximum deviation between the numerically integrated ephemerides
# and the TLE-based ephemeris, in kilometers,  is given for each TLE
# as the "worst residual".
#
#    This fitting is done using the 'eph2tle' code packaged with Find_Orb.
# The code has details on how the TLEs were computed :
#
#    https://github.com/Bill-Gray/find_orb/eph2tle.cpp
#
#    Be warned:  the error given is that between the numerically
# integrated ephems and the TLE model.  There will usually be at
# least some additional difference between the ephems and the actual
# motion of the satellite,  especially if the ephemerides are based
# on a short arc.  If the following orbital elements say something
# like "[based on] 10 observations 2015 Jan. 1-13",  and the TLEs
# are for 2015 May,  the extrapolation may be tenuous at best.  If
# your application requires a specific level of accuracy,  you may
# want to contact me;  I can give you some idea as to the fit of the
# underlying data (and possibly TLEs based on newer data).
#
#   You can usually find the underlying observational data,  and the
# fitted orbit,  residuals,  ephemerides,  and sometimes some comments
# about the object,  among the pages listed at
#
#    https://www.projectpluto.com/pluto/mpecs/pseudo.htm
#
#    Also,  if you use a TLE outside the "correct" time range (between
# its MJD and that of the next TLE),  all bets are off.  I've carefully
# computed and minimized the worst error over the "correct" time frame,
# but the ephemeris may (or may not) diverge wildly outside of it.
#
# Ephem range: 59215.000000 59580.000000 1.000000
# Created Thu Oct 14 12:42:32 2021
# Ephemeris start:  1 Jan 2021  0:00:00
# Ephemeris end:    1 Jan 2022  0:00:00
# Times are all TDT
# Positions/velocities are in ecliptic J2000
# Orbital elements:  1963-039C = Vela 1B
#    Perigee 2020 Dec 11.78757 +/- 1.78e-5 TT = 18:54:05 (JD 2459195.28757)
# Epoch 2020 Dec 14.0 TT; AMR 0.0011165 +/- 0.001 m^2/kg        Find_Orb
# M 176.03099155 +/- 0.0014           (J2000 equator)
# n  79.56449927 +/- 2.28e-5          Peri.  258.47683 +/- 0.0011
# a115555.498 +/- 0.0221              Node   316.03483 +/- 0.00057
# e   0.5455033 +/- 8.9e-6            Incl.   15.14314 +/- 0.00025
# P6515.35m/4.525d           H 30.2   G  0.15   U  5.6
# q 52519.5848 +/- 1.03    Q 178591.412 +/- 1.03
# 40 of 48 observations 2017 Nov. 22-2021 Oct. 13; mean residual 3".338
#
# 1 NoradU COSPAR   Epoch.epoch     dn/dt/2  d2n/dt2/6 BSTAR    T El# C
# 2 NoradU Inclina RAAscNode Eccent  ArgPeri MeanAno  MeanMotion Rev# C

# Worst residual: 7.60 km
# MJD 59215.000000 (2021 Jan  1  0:00)
1963-039C = Vela 1B
1 99999U 63039C   21001.49919926  .00000000  00000-0  00000-0 0 13837
2 99999 014.9541 315.8291 5440034 258.2987 209.4011 00.22126572    05

# Worst residual: 1.83 km
# MJD 59216.000000 (2021 Jan  2  0:00)
1963-039C = Vela 1B
1 99999U 63039C   21002.49919926  .00000000  00000-0  00000-0 0 13838
2 99999 014.9453 315.8208 5442031 258.2958 289.0851 00.22120972    06

# Worst residual: 12.17 km
# MJD 59217.000000 (2021 Jan  3  0:00)
1963-039C = Vela 1B
1 99999U 63039C   21003.49919926  .00000000  00000-0  00000-0 0 13839
2 99999 014.9419 315.8296 5433850 258.3046 008.6388 00.22158156    08

# Worst residual: 9.89 km
# MJD 59218.000000 (2021 Jan  4  0:00)
1963-039C = Vela 1B
1 99999U 63039C   21004.49919926  .00000000  00000-0  00000-0 0 13830
2 99999 014.9285 315.8295 5442262 258.3241 088.1660 00.22125593    07

# Worst residual: 1.75 km
# MJD 59219.000000 (2021 Jan  5  0:00)
1963-039C = Vela 1B
1 99999U 63039C   21005.49919926  .00000000  00000-0  00000-0 0 13831
2 99999 014.9244 315.8456 5442870 258.3815 167.5945 00.22113481    04

# Worst residual: 3.34 km
# MJD 59220.000000 (2021 Jan  6  0:00)
1963-039C = Vela 1B
1 99999U 63039C   21006.49919926  .00000000  00000-0  00000-0 0 13832
2 99999 014.9173 315.8728 5440364 258.3732 247.1305 00.22107200    08

# Worst residual: 29.71 km
# MJD 59221.000000 (2021 Jan  7  0:00)
1963-039C = Vela 1B
1 99999U 63039C   21007.49919926  .00000000  00000-0  00000-0 0 13833
2 99999 014.9120 315.8435 5450148 258.3643 326.8186 00.22062318    09

# Worst residual: 35.04 km
# MJD 59222.000000 (2021 Jan  8  0:00)
1963-039C = Vela 1B
1 99999U 63039C   21008.49919926  .00000000  00000-0  00000-0 0 13834
2 99999 014.9085 315.8333 5452778 258.6599 046.0738 00.22025218    02

# Worst residual: 10.02 km
# MJD 59223.000000 (2021 Jan  9  0:00)
1963-039C = Vela 1B
1 99999U 63039C   21009.49919926  .00000000  00000-0  00000-0 0 13835
2 99999 014.9069 315.8354 5438172 258.5641 125.8585 00.22093392    00

# Worst residual: 5.09 km
# MJD 59224.000000 (2021 Jan 10  0:00)
1963-039C = Vela 1B
1 99999U 63039C   21010.49919926  .00000000  00000-0  00000-0 0 13837
2 99999 014.8977 315.8093 5442313 258.5742 205.4547 00.22109306    07

# Worst residual: 20.68 km
# MJD 59225.000000 (2021 Jan 11  0:00)
1963-039C = Vela 1B
1 99999U 63039C   21011.49919926  .00000000  00000-0  00000-0 0 13838
2 99999 014.8906 315.7866 5440338 258.7520 284.7197 00.22144297    06

# Worst residual: 23.26 km
# MJD 59226.000000 (2021 Jan 12  0:00)
1963-039C = Vela 1B
1 99999U 63039C   21012.49919926  .00000000  00000-0  00000-0 0 13839
2 99999 014.8725 315.7697 5428240 258.7547 004.2998 00.22176409    08

# Worst residual: 6.43 km
# MJD 59227.000000 (2021 Jan 13  0:00)
1963-039C = Vela 1B
1 99999U 63039C   21013.49919926  .00000000  00000-0  00000-0 0 13830
2 99999 014.8699 315.7232 5440718 258.8299 083.7898 00.22108756    03

# Worst residual: 11.06 km
# MJD 59228.000000 (2021 Jan 14  0:00)
1963-039C = Vela 1B
1 99999U 63039C   21014.49919926  .00000000  00000-0  00000-0 0 13831
2 99999 014.8616 315.7180 5438303 258.7595 163.6181 00.22130859    01

# Worst residual: 10.10 km
# MJD 59229.000000 (2021 Jan 15  0:00)
1963-039C = Vela 1B
1 99999U 63039C   21015.49919926  .00000000  00000-0  00000-0 0 13832
2 99999 014.8546 315.7786 5432005 258.6116 243.4711 00.22108720    04

# Worst residual: 8.34 km
# MJD 59230.000000 (2021 Jan 16  0:00)
1963-039C = Vela 1B
1 99999U 63039C   21016.49919926  .00000000  00000-0  00000-0 0 13833
2 99999 014.8464 315.7900 5431674 258.5531 323.0673 00.22081495    03

# Worst residual: 8.57 km
# MJD 59231.000000 (2021 Jan 17  0:00)
1963-039C = Vela 1B
1 99999U 63039C   21017.49919926  .00000000  00000-0  00000-0 0 13834
2 99999 014.8440 315.8337 5426738 258.6014 042.5500 00.22120939    03

# Worst residual: 14.72 km
# MJD 59232.000000 (2021 Jan 18  0:00)
1963-039C = Vela 1B
1 99999U 63039C   21018.49919926  .00000000  00000-0  00000-0 0 13835
2 99999 014.7989 315.7092 5434075 258.8430 121.7754 00.22080042    05

# Worst residual: 8.31 km
# MJD 59233.000000 (2021 Jan 19  0:00)
1963-039C = Vela 1B
1 99999U 63039C   21019.49919926  .00000000  00000-0  00000-0 0 13836
2 99999 014.7670 315.4392 5450808 259.1624 201.0851 00.22109276    04

# Worst residual: 16.79 km
# MJD 59234.000000 (2021 Jan 20  0:00)
1963-039C = Vela 1B
1 99999U 63039C   21020.49919926  .00000000  00000-0  00000-0 0 13838
2 99999 014.7626 315.3288 5462686 259.2767 280.7903 00.22116656    06

# Worst residual: 43.71 km
# MJD 59235.000000 (2021 Jan 21  0:00)
1963-039C = Vela 1B
1 99999U 63039C   21021.49919926  .00000000  00000-0  00000-0 0 13839
2 99999 014.7627 315.3078 5481820 259.3718 000.4258 00.22049006    06

# Worst residual: 25.90 km
# MJD 59236.000000 (2021 Jan 22  0:00)
1963-039C = Vela 1B
1 99999U 63039C   21022.49919926  .00000000  00000-0  00000-0 0 13830
2 99999 014.7587 315.3111 5463427 259.5188 079.9622 00.22094793    04

# Worst residual: 8.89 km
# MJD 59237.000000 (2021 Jan 23  0:00)
1963-039C = Vela 1B
1 99999U 63039C   21023.49919926  .00000000  00000-0  00000-0 0 13831
2 99999 014.7552 315.3303 5452878 259.4228 159.8309 00.22116764    04

# Worst residual: 15.14 km
# MJD 59238.000000 (2021 Jan 24  0:00)
1963-039C = Vela 1B
1 99999U 63039C   21024.49919926  .00000000  00000-0  00000-0 0 13832
2 99999 014.7489 315.4634 5434597 259.3391 239.2010 00.22083319    00

# Worst residual: 13.65 km
# MJD 59239.000000 (2021 Jan 25  0:00)
1963-039C = Vela 1B
1 99999U 63039C   21025.49919926  .00000000  00000-0  00000-0 0 13833
2 99999 014.7250 315.5781 5421964 259.3705 318.3485 00.22130194    02

# Worst residual: 12.43 km
# MJD 59240.000000 (2021 Jan 26  0:00)
1963-039C = Vela 1B
1 99999U 63039C   21026.49919926  .00000000  00000-0  00000-0 0 13834
2 99999 014.7150 315.5132 5428080 259.5022 037.8419 00.22077765    05

# Worst residual: 8.35 km
# MJD 59241.000000 (2021 Jan 27  0:00)
1963-039C = Vela 1B
1 99999U 63039C   21027.49919926  .00000000  00000-0  00000-0 0 13835
2 99999 014.7106 315.4983 5426678 259.4935 117.3981 00.22098782    02

# Worst residual: 9.53 km
# MJD 59242.000000 (2021 Jan 28  0:00)
1963-039C = Vela 1B
1 99999U 63039C   21028.49919926  .00000000  00000-0  00000-0 0 13836
2 99999 014.6966 315.4264 5434235 259.4600 197.2568 00.22129238    03

# Worst residual: 4.37 km
# MJD 59243.000000 (2021 Jan 29  0:00)
1963-039C = Vela 1B
1 99999U 63039C   21029.49919926  .00000000  00000-0  00000-0 0 13837
2 99999 014.6883 315.4061 5437551 259.4268 277.0567 00.22117844    06

# Worst residual: 23.10 km
# MJD 59244.000000 (2021 Jan 30  0:00)
1963-039C = Vela 1B
1 99999U 63039C   21030.49919926  .00000000  00000-0  00000-0 0 13839
2 99999 014.6866 315.4155 5426762 259.4473 356.5745 00.22167734    05

# Worst residual: 20.89 km
# MJD 59245.000000 (2021 Jan 31  0:00)
1963-039C = Vela 1B
1 99999U 63039C   21031.49919926  .00000000  00000-0  00000-0 0 13830
2 99999 014.6711 315.4357 5435789 259.4042 076.1801 00.22144645    03
